ONEWEB-0564             
1 55801U 23029F   26061.69635108  .00000000  00000+0 -30898-4 0  9990
2 55801  87.9173 295.7248 0001475  69.0163 291.1128 13.20771924147096
ONEWEB-0638             
1 55802U 23029G   26061.75205973  .00000310  00000+0  80116-3 0  9991
2 55802  87.8990 310.9959 0001071  73.9222 286.2026 13.14502361145410
ONEWEB-0639             
1 55803U 23029H   26061.73676330  .00000045  00000+0  81019-4 0  9998
2 55803  87.9239 326.1830 0002054 111.4002 248.7350 13.19726703144865
ONEWEB-0640             
1 55804U 23029J   26061.68544164  .00000257  00000+0  66004-3 0  9993
2 55804  87.8994 310.9997 0000957  95.5853 264.5386 13.14501504145427
ONEWEB-0641             
1 55805U 23029K   26061.73202717  .00000088  00000+0  18712-3 0  9990
2 55805  87.9244 326.1703 0001769  84.7493 275.3841 13.19725878144874
ONEWEB-0642             
1 55806U 23029L   26061.72729036  .00000033  00000+0  51315-4 0  9995
2 55806  87.9239 326.1863 0002161 101.5939 258.5437 13.19726190144867
ONEWEB-0643             
1 55807U 23029M   26061.73143537  .00000018  00000+0  12901-4 0  9994
2 55807  87.8990 310.9773 0002170  95.0987 265.0391 13.14502076145405
ONEWEB-0644             
1 55808U 23029N   26061.79837432 -.00000364  00000+0 -94188-3 0  9997
2 55808  87.9232 326.1793 0001908  90.7220 269.4131 13.19727181144878
ONEWEB-0645             
1 55809U 23029P   26061.74465980  .00000018  00000+0  12340-4 0  9993
2 55809  87.9235 326.1821 0001514  95.8728 264.2577 13.19723397144867
ONEWEB-0646             
1 55810U 23029Q   26061.76203122  .00000124  00000+0  27733-3 0  9994
2 55810  87.9239 326.1782 0001866  87.6278 272.5069 13.19726978144853
ONEWEB-0648             
1 55811U 23029R   26061.69971505 -.00000010  00000+0 -62173-4 0  9998
2 55811  87.9002 310.9484 0001712 114.2224 245.9085 13.14501409145409
ONEWEB-0649             
1 55812U 23029S   26061.78729971  .00000038  00000+0  62888-4 0  9998
2 55812  87.9238 326.1702 0001614  90.0977 270.0340 13.19724357144899
ONEWEB-0650             
1 55813U 23029T   26061.78256781  .00000000  00000+0 -32692-4 0  9993
2 55813  87.9236 326.1743 0001883  94.1170 266.0178 13.19726416144860
ONEWEB-0652             
1 55814U 23029U   26061.75680846  .00000287  00000+0  73915-3 0  9992
2 55814  87.8993 310.9529 0001652  74.4025 285.7286 13.14501157145381
ONEWEB-0653             
1 55815U 23029V   26061.74094873  .00000197  00000+0  49725-3 0  9993
2 55815  87.8995 310.9461 0001482  76.2339 283.8956 13.14501652145415
ONEWEB-0654             
1 55816U 23029W   26061.73619042  .00000066  00000+0  14385-3 0  9993
2 55816  87.8988 310.9467 0001622  67.5069 292.6233 13.14502262145439
ONEWEB-0656             
1 55817U 23029X   26061.69003923  .00000027  00000+0  34182-4 0  9999
2 55817  87.9184 295.6914 0001581  67.7006 292.4295 13.20771514147097
