[{"OBJECT_NAME":"ONEWEB-0564","OBJECT_ID":"2023-029F","EPOCH":"2026-03-02T16:42:44.733312","MEAN_MOTION":13.20771924,"ECCENTRICITY":0.0001475,"INCLINATION":87.9173,"RA_OF_ASC_NODE":295.7248,"ARG_OF_PERICENTER":69.0163,"MEAN_ANOMALY":291.1128,"EPHEMERIS_TYPE":0,"CLASSIFICATION_TYPE":"U","NORAD_CAT_ID":55801,"ELEMENT_SET_NO":999,"REV_AT_EPOCH":14709,"BSTAR":-3.0898e-5,"MEAN_MOTION_DOT":0,"MEAN_MOTION_DDOT":0},{"OBJECT_NAME":"ONEWEB-0638","OBJECT_ID":"2023-029G","EPOCH":"2026-03-02T18:02:57.960672","MEAN_MOTION":13.14502361,"ECCENTRICITY":0.0001071,"INCLINATION":87.899,"RA_OF_ASC_NODE":310.9959,"ARG_OF_PERICENTER":73.9222,"MEAN_ANOMALY":286.2026,"EPHEMERIS_TYPE":0,"CLASSIFICATION_TYPE":"U","NORAD_CAT_ID":55802,"ELEMENT_SET_NO":999,"REV_AT_EPOCH":14541,"BSTAR":0.00080116,"MEAN_MOTION_DOT":3.1e-6,"MEAN_MOTION_DDOT":0},{"OBJECT_NAME":"ONEWEB-0639","OBJECT_ID":"2023-029H","EPOCH":"2026-03-02T17:40:56.349120","MEAN_MOTION":13.19726703,"ECCENTRICITY":0.0002054,"INCLINATION":87.9239,"RA_OF_ASC_NODE":326.183,"ARG_OF_PERICENTER":111.4002,"MEAN_ANOMALY":248.735,"EPHEMERIS_TYPE":0,"CLASSIFICATION_TYPE":"U","NORAD_CAT_ID":55803,"ELEMENT_SET_NO":999,"REV_AT_EPOCH":14486,"BSTAR":8.1019e-5,"MEAN_MOTION_DOT":4.5e-7,"MEAN_MOTION_DDOT":0},{"OBJECT_NAME":"ONEWEB-0640","OBJECT_ID":"2023-029J","EPOCH":"2026-03-02T16:27:02.157696","MEAN_MOTION":13.14501504,"ECCENTRICITY":9.57e-5,"INCLINATION":87.8994,"RA_OF_ASC_NODE":310.9997,"ARG_OF_PERICENTER":95.5853,"MEAN_ANOMALY":264.5386,"EPHEMERIS_TYPE":0,"CLASSIFICATION_TYPE":"U","NORAD_CAT_ID":55804,"ELEMENT_SET_NO":999,"REV_AT_EPOCH":14542,"BSTAR":0.00066004,"MEAN_MOTION_DOT":2.57e-6,"MEAN_MOTION_DDOT":0},{"OBJECT_NAME":"ONEWEB-0641","OBJECT_ID":"2023-029K","EPOCH":"2026-03-02T17:34:07.147488","MEAN_MOTION":13.19725878,"ECCENTRICITY":0.0001769,"INCLINATION":87.9244,"RA_OF_ASC_NODE":326.1703,"ARG_OF_PERICENTER":84.7493,"MEAN_ANOMALY":275.3841,"EPHEMERIS_TYPE":0,"CLASSIFICATION_TYPE":"U","NORAD_CAT_ID":55805,"ELEMENT_SET_NO":999,"REV_AT_EPOCH":14487,"BSTAR":0.00018712,"MEAN_MOTION_DOT":8.8e-7,"MEAN_MOTION_DDOT":0},{"OBJECT_NAME":"ONEWEB-0642","OBJECT_ID":"2023-029L","EPOCH":"2026-03-02T17:27:17.887104","MEAN_MOTION":13.1972619,"ECCENTRICITY":0.0002161,"INCLINATION":87.9239,"RA_OF_ASC_NODE":326.1863,"ARG_OF_PERICENTER":101.5939,"MEAN_ANOMALY":258.5437,"EPHEMERIS_TYPE":0,"CLASSIFICATION_TYPE":"U","NORAD_CAT_ID":55806,"ELEMENT_SET_NO":999,"REV_AT_EPOCH":14486,"BSTAR":5.1315e-5,"MEAN_MOTION_DOT":3.3e-7,"MEAN_MOTION_DDOT":0},{"OBJECT_NAME":"ONEWEB-0643","OBJECT_ID":"2023-029M","EPOCH":"2026-03-02T17:33:16.015968","MEAN_MOTION":13.14502076,"ECCENTRICITY":0.000217,"INCLINATION":87.899,"RA_OF_ASC_NODE":310.9773,"ARG_OF_PERICENTER":95.0987,"MEAN_ANOMALY":265.0391,"EPHEMERIS_TYPE":0,"CLASSIFICATION_TYPE":"U","NORAD_CAT_ID":55807,"ELEMENT_SET_NO":999,"REV_AT_EPOCH":14540,"BSTAR":1.2901e-5,"MEAN_MOTION_DOT":1.8e-7,"MEAN_MOTION_DDOT":0},{"OBJECT_NAME":"ONEWEB-0644","OBJECT_ID":"2023-029N","EPOCH":"2026-03-02T19:09:39.541248","MEAN_MOTION":13.19727181,"ECCENTRICITY":0.0001908,"INCLINATION":87.9232,"RA_OF_ASC_NODE":326.1793,"ARG_OF_PERICENTER":90.722,"MEAN_ANOMALY":269.4131,"EPHEMERIS_TYPE":0,"CLASSIFICATION_TYPE":"U","NORAD_CAT_ID":55808,"ELEMENT_SET_NO":999,"REV_AT_EPOCH":14487,"BSTAR":-0.00094188,"MEAN_MOTION_DOT":-3.64e-6,"MEAN_MOTION_DDOT":0},{"OBJECT_NAME":"ONEWEB-0645","OBJECT_ID":"2023-029P","EPOCH":"2026-03-02T17:52:18.606720","MEAN_MOTION":13.19723397,"ECCENTRICITY":0.0001514,"INCLINATION":87.9235,"RA_OF_ASC_NODE":326.1821,"ARG_OF_PERICENTER":95.8728,"MEAN_ANOMALY":264.2577,"EPHEMERIS_TYPE":0,"CLASSIFICATION_TYPE":"U","NORAD_CAT_ID":55809,"ELEMENT_SET_NO":999,"REV_AT_EPOCH":14486,"BSTAR":1.234e-5,"MEAN_MOTION_DOT":1.8e-7,"MEAN_MOTION_DDOT":0},{"OBJECT_NAME":"ONEWEB-0646","OBJECT_ID":"2023-029Q","EPOCH":"2026-03-02T18:17:19.497408","MEAN_MOTION":13.19726978,"ECCENTRICITY":0.0001866,"INCLINATION":87.9239,"RA_OF_ASC_NODE":326.1782,"ARG_OF_PERICENTER":87.6278,"MEAN_ANOMALY":272.5069,"EPHEMERIS_TYPE":0,"CLASSIFICATION_TYPE":"U","NORAD_CAT_ID":55810,"ELEMENT_SET_NO":999,"REV_AT_EPOCH":14485,"BSTAR":0.00027733,"MEAN_MOTION_DOT":1.24e-6,"MEAN_MOTION_DDOT":0},{"OBJECT_NAME":"ONEWEB-0648","OBJECT_ID":"2023-029R","EPOCH":"2026-03-02T16:47:35.380320","MEAN_MOTION":13.14501409,"ECCENTRICITY":0.0001712,"INCLINATION":87.9002,"RA_OF_ASC_NODE":310.9484,"ARG_OF_PERICENTER":114.2224,"MEAN_ANOMALY":245.9085,"EPHEMERIS_TYPE":0,"CLASSIFICATION_TYPE":"U","NORAD_CAT_ID":55811,"ELEMENT_SET_NO":999,"REV_AT_EPOCH":14540,"BSTAR":-6.2173e-5,"MEAN_MOTION_DOT":-1.0e-7,"MEAN_MOTION_DDOT":0},{"OBJECT_NAME":"ONEWEB-0649","OBJECT_ID":"2023-029S","EPOCH":"2026-03-02T18:53:42.694944","MEAN_MOTION":13.19724357,"ECCENTRICITY":0.0001614,"INCLINATION":87.9238,"RA_OF_ASC_NODE":326.1702,"ARG_OF_PERICENTER":90.0977,"MEAN_ANOMALY":270.034,"EPHEMERIS_TYPE":0,"CLASSIFICATION_TYPE":"U","NORAD_CAT_ID":55812,"ELEMENT_SET_NO":999,"REV_AT_EPOCH":14489,"BSTAR":6.2888e-5,"MEAN_MOTION_DOT":3.8e-7,"MEAN_MOTION_DDOT":0},{"OBJECT_NAME":"ONEWEB-0650","OBJECT_ID":"2023-029T","EPOCH":"2026-03-02T18:46:53.858784","MEAN_MOTION":13.19726416,"ECCENTRICITY":0.0001883,"INCLINATION":87.9236,"RA_OF_ASC_NODE":326.1743,"ARG_OF_PERICENTER":94.117,"MEAN_ANOMALY":266.0178,"EPHEMERIS_TYPE":0,"CLASSIFICATION_TYPE":"U","NORAD_CAT_ID":55813,"ELEMENT_SET_NO":999,"REV_AT_EPOCH":14486,"BSTAR":-3.2692e-5,"MEAN_MOTION_DOT":0,"MEAN_MOTION_DDOT":0},{"OBJECT_NAME":"ONEWEB-0652","OBJECT_ID":"2023-029U","EPOCH":"2026-03-02T18:09:48.250944","MEAN_MOTION":13.14501157,"ECCENTRICITY":0.0001652,"INCLINATION":87.8993,"RA_OF_ASC_NODE":310.9529,"ARG_OF_PERICENTER":74.4025,"MEAN_ANOMALY":285.7286,"EPHEMERIS_TYPE":0,"CLASSIFICATION_TYPE":"U","NORAD_CAT_ID":55814,"ELEMENT_SET_NO":999,"REV_AT_EPOCH":14538,"BSTAR":0.00073915,"MEAN_MOTION_DOT":2.87e-6,"MEAN_MOTION_DDOT":0},{"OBJECT_NAME":"ONEWEB-0653","OBJECT_ID":"2023-029V","EPOCH":"2026-03-02T17:46:57.970272","MEAN_MOTION":13.14501652,"ECCENTRICITY":0.0001482,"INCLINATION":87.8995,"RA_OF_ASC_NODE":310.9461,"ARG_OF_PERICENTER":76.2339,"MEAN_ANOMALY":283.8956,"EPHEMERIS_TYPE":0,"CLASSIFICATION_TYPE":"U","NORAD_CAT_ID":55815,"ELEMENT_SET_NO":999,"REV_AT_EPOCH":14541,"BSTAR":0.00049725,"MEAN_MOTION_DOT":1.97e-6,"MEAN_MOTION_DDOT":0},{"OBJECT_NAME":"ONEWEB-0654","OBJECT_ID":"2023-029W","EPOCH":"2026-03-02T17:40:06.852288","MEAN_MOTION":13.14502262,"ECCENTRICITY":0.0001622,"INCLINATION":87.8988,"RA_OF_ASC_NODE":310.9467,"ARG_OF_PERICENTER":67.5069,"MEAN_ANOMALY":292.6233,"EPHEMERIS_TYPE":0,"CLASSIFICATION_TYPE":"U","NORAD_CAT_ID":55816,"ELEMENT_SET_NO":999,"REV_AT_EPOCH":14543,"BSTAR":0.00014385,"MEAN_MOTION_DOT":6.6e-7,"MEAN_MOTION_DDOT":0},{"OBJECT_NAME":"ONEWEB-0656","OBJECT_ID":"2023-029X","EPOCH":"2026-03-02T16:33:39.389472","MEAN_MOTION":13.20771514,"ECCENTRICITY":0.0001581,"INCLINATION":87.9184,"RA_OF_ASC_NODE":295.6914,"ARG_OF_PERICENTER":67.7006,"MEAN_ANOMALY":292.4295,"EPHEMERIS_TYPE":0,"CLASSIFICATION_TYPE":"U","NORAD_CAT_ID":55817,"ELEMENT_SET_NO":999,"REV_AT_EPOCH":14709,"BSTAR":3.4182e-5,"MEAN_MOTION_DOT":2.7e-7,"MEAN_MOTION_DDOT":0}]
